{"type": "FeatureCollection", "features": [ {"type": "Feature", "properties": {"norad_id": 39155, "name": "COSMOS 2485 (747)", "group": "glo-ops", "lat": -15.961389524078708, "lon": -92.87912067110071, "alt_km": 19078.78176130868, "timestamp": "2025-12-21T18:54:58.757710+00:00", "meta": {"OBJECT_NAME": "COSMOS 2485 (747)", "OBJECT_ID": "2013-019A", "EPOCH": "2025-12-20T02:56:15.241632", "MEAN_MOTION": 2.1310322, "ECCENTRICITY": 0.0024876, "INCLINATION": 65.3174, "RA_OF_ASC_NODE": 79.6189, "ARG_OF_PERICENTER": 230.2075, "MEAN_ANOMALY": 129.6042, "EPHEMERIS_TYPE": 0, "CLASSIFICATION_TYPE": "U", "NORAD_CAT_ID": 39155, "ELEMENT_SET_NO": 999, "REV_AT_EPOCH": 9846, "BSTAR": 0, "MEAN_MOTION_DOT": -2e-07, "MEAN_MOTION_DDOT": 0}, "tle": {"line1": "1 39155U 13019A   25354.12239863 -.00000020  00000+0  00000+0 0  9991", "line2": "2 39155  65.3174  79.6189 0024876 230.2075 129.6042  2.13103220 98462"}}, "geometry": {"type": "Point", "coordinates": [-92.87912067110071, -15.961389524078708]}}, {"type": "Feature", "properties": {"norad_id": 39620, "name": "COSMOS 2492 (754)", "group": "glo-ops", "lat": -43.70974935204862, "lon": 165.89911410562067, "alt_km": 19130.834338538803, "timestamp": "2025-12-21T18:54:58.757721+00:00", "meta": {"OBJECT_NAME": "COSMOS 2492 (754)", "OBJECT_ID": "2014-012A", "EPOCH": "2025-12-21T00:28:06.027744", "MEAN_MOTION": 2.13103414, "ECCENTRICITY": 0.0014234, "INCLINATION": 65.403, "RA_OF_ASC_NODE": 319.9894, "ARG_OF_PERICENTER": 312.8453, "MEAN_ANOMALY": 47.0277, "EPHEMERIS_TYPE": 0, "CLASSIFICATION_TYPE": "U", "NORAD_CAT_ID": 39620, "ELEMENT_SET_NO": 999, "REV_AT_EPOCH": 9144, "BSTAR": 0, "MEAN_MOTION_DOT": -4.8e-07, "MEAN_MOTION_DDOT": 0}, "tle": {"line1": "1 39620U 14012A   25355.01951421 -.00000048  00000+0  00000+0 0  9992", "line2": "2 39620  65.4030 319.9894 0014234 312.8453  47.0277  2.13103414 91447"}}, "geometry": {"type": "Point", "coordinates": [165.89911410562067, -43.70974935204862]}}, {"type": "Feature", "properties": {"norad_id": 40001, "name": "COSMOS 2500 (755)", "group": "glo-ops", "lat": 64.26918264404576, "lon": 67.39011736496946, "alt_km": 19133.045015428488, "timestamp": "2025-12-21T18:54:58.757732+00:00", "meta": {"OBJECT_NAME": "COSMOS 2500 (755)", "OBJECT_ID": "2014-032A", "EPOCH": "2025-12-21T04:35:55.026240", "MEAN_MOTION": 2.13106227, "ECCENTRICITY": 0.00077299, "INCLINATION": 65.3386, "RA_OF_ASC_NODE": 319.7453, "ARG_OF_PERICENTER": 219.3736, "MEAN_ANOMALY": 140.5635, "EPHEMERIS_TYPE": 0, "CLASSIFICATION_TYPE": "U", "NORAD_CAT_ID": 40001, "ELEMENT_SET_NO": 999, "REV_AT_EPOCH": 8966, "BSTAR": 0, "MEAN_MOTION_DOT": -4.7e-07, "MEAN_MOTION_DDOT": 0}, "tle": {"line1": "1 40001U 14032A   25355.19160910 -.00000047  00000+0  00000+0 0  9992", "line2": "2 40001  65.3386 319.7453 0007729 219.3736 140.5635  2.13106227 89663"}}, "geometry": {"type": "Point", "coordinates": [67.39011736496946, 64.26918264404576]}}, {"type": "Feature", "properties": {"norad_id": 40315, "name": "COSMOS 2501 (702K)", "group": "glo-ops", "lat": -61.338456472699725, "lon": 81.84107833755975, "alt_km": 19106.275675815825, "timestamp": "2025-12-21T18:54:58.757743+00:00", "meta": {"OBJECT_NAME": "COSMOS 2501 (702K)", "OBJECT_ID": "2014-075A", "EPOCH": "2025-12-19T02:31:27.452640", "MEAN_MOTION": 2.13101513, "ECCENTRICITY": 0.0020099, "INCLINATION": 63.6146, "RA_OF_ASC_NODE": 196.6046, "ARG_OF_PERICENTER": 204.1838, "MEAN_ANOMALY": 155.7988, "EPHEMERIS_TYPE": 0, "CLASSIFICATION_TYPE": "U", "NORAD_CAT_ID": 40315, "ELEMENT_SET_NO": 999, "REV_AT_EPOCH": 8601, "BSTAR": 0, "MEAN_MOTION_DOT": 1.06e-06, "MEAN_MOTION_DDOT": 0}, "tle": {"line1": "1 40315U 14075A   25353.10517885  .00000106  00000+0  00000+0 0  9998", "line2": "2 40315  63.6146 196.6046 0020099 204.1838 155.7988  2.13101513 86014"}}, "geometry": {"type": "Point", "coordinates": [81.84107833755975, -61.338456472699725]}}, {"type": "Feature", "properties": {"norad_id": 41330, "name": "COSMOS 2514 (751)", "group": "glo-ops", "lat": -65.12084379105643, "lon": -129.43824291215572, "alt_km": 19117.417297828917, "timestamp": "2025-12-21T18:54:58.757754+00:00", "meta": {"OBJECT_NAME": "COSMOS 2514 (751)", "OBJECT_ID": "2016-008A", "EPOCH": "2025-12-20T23:11:21.347520", "MEAN_MOTION": 2.13102678, "ECCENTRICITY": 0.00117473, "INCLINATION": 65.1291, "RA_OF_ASC_NODE": 319.1224, "ARG_OF_PERICENTER": 220.1373, "MEAN_ANOMALY": 139.7688, "EPHEMERIS_TYPE": 0, "CLASSIFICATION_TYPE": "U", "NORAD_CAT_ID": 41330, "ELEMENT_SET_NO": 999, "REV_AT_EPOCH": 7682, "BSTAR": 0, "MEAN_MOTION_DOT": -4.9e-07, "MEAN_MOTION_DDOT": 0}, "tle": {"line1": "1 41330U 16008A   25354.96621930 -.00000049  00000+0  00000+0 0  9993", "line2": "2 41330  65.1291 319.1224 0011747 220.1373 139.7688  2.13102678 76822"}}, "geometry": {"type": "Point", "coordinates": [-129.43824291215572, -65.12084379105643]}}, {"type": "Feature", "properties": {"norad_id": 42939, "name": "COSMOS 2522 (752)", "group": "glo-ops", "lat": 30.6674322697804, "lon": -145.30062652719158, "alt_km": 19142.272164741513, "timestamp": "2025-12-21T18:54:58.757765+00:00", "meta": {"OBJECT_NAME": "COSMOS 2522 (752)", "OBJECT_ID": "2017-055A", "EPOCH": "2025-12-20T19:18:35.639424", "MEAN_MOTION": 2.13102071, "ECCENTRICITY": 0.00063061, "INCLINATION": 64.0764, "RA_OF_ASC_NODE": 197.9542, "ARG_OF_PERICENTER": 223.7674, "MEAN_ANOMALY": 136.256, "EPHEMERIS_TYPE": 0, "CLASSIFICATION_TYPE": "U", "NORAD_CAT_ID": 42939, "ELEMENT_SET_NO": 999, "REV_AT_EPOCH": 6417, "BSTAR": 0, "MEAN_MOTION_DOT": 9.9e-07, "MEAN_MOTION_DDOT": 0}, "tle": {"line1": "1 42939U 17055A   25354.80457916  .00000099  00000+0  00000+0 0  9990", "line2": "2 42939  64.0764 197.9542 0006306 223.7674 136.2560  2.13102071 64177"}}, "geometry": {"type": "Point", "coordinates": [-145.30062652719158, 30.6674322697804]}}, {"type": "Feature", "properties": {"norad_id": 43508, "name": "COSMOS 2527 (756)", "group": "glo-ops", "lat": 55.24326006553749, "lon": 120.89228589084628, "alt_km": 19145.30679787346, "timestamp": "2025-12-21T18:54:58.757776+00:00", "meta": {"OBJECT_NAME": "COSMOS 2527 (756)", "OBJECT_ID": "2018-053A", "EPOCH": "2025-12-20T18:22:11.791200", "MEAN_MOTION": 2.13102375, "ECCENTRICITY": 0.00088721, "INCLINATION": 65.4768, "RA_OF_ASC_NODE": 79.8631, "ARG_OF_PERICENTER": 227.1028, "MEAN_ANOMALY": 132.8569, "EPHEMERIS_TYPE": 0, "CLASSIFICATION_TYPE": "U", "NORAD_CAT_ID": 43508, "ELEMENT_SET_NO": 999, "REV_AT_EPOCH": 5847, "BSTAR": 0, "MEAN_MOTION_DOT": -1.4e-07, "MEAN_MOTION_DDOT": 0}, "tle": {"line1": "1 43508U 18053A   25354.76541425 -.00000014  00000+0  00000+0 0  9994", "line2": "2 43508  65.4768  79.8631 0008872 227.1028 132.8569  2.13102375 58471"}}, "geometry": {"type": "Point", "coordinates": [120.89228589084628, 55.24326006553749]}}, {"type": "Feature", "properties": {"norad_id": 43687, "name": "COSMOS 2529 (757)", "group": "glo-ops", "lat": -9.06143437450508, "lon": -165.82123259662478, "alt_km": 19133.529972680066, "timestamp": "2025-12-21T18:54:58.757786+00:00", "meta": {"OBJECT_NAME": "COSMOS 2529 (757)", "OBJECT_ID": "2018-086A", "EPOCH": "2025-12-21T07:58:09.386112", "MEAN_MOTION": 2.13102154, "ECCENTRICITY": 0.00069464, "INCLINATION": 64.2925, "RA_OF_ASC_NODE": 198.598, "ARG_OF_PERICENTER": 253.6032, "MEAN_ANOMALY": 106.3925, "EPHEMERIS_TYPE": 0, "CLASSIFICATION_TYPE": "U", "NORAD_CAT_ID": 43687, "ELEMENT_SET_NO": 999, "REV_AT_EPOCH": 5549, "BSTAR": 0, "MEAN_MOTION_DOT": 9.7e-07, "MEAN_MOTION_DDOT": 0}, "tle": {"line1": "1 43687U 18086A   25355.33205308  .00000097  00000+0  00000+0 0  9999", "line2": "2 43687  64.2925 198.5980 0006946 253.6032 106.3925  2.13102154 55492"}}, "geometry": {"type": "Point", "coordinates": [-165.82123259662478, -9.06143437450508]}}, {"type": "Feature", "properties": {"norad_id": 44299, "name": "COSMOS 2534 (758)", "group": "glo-ops", "lat": 48.134541777748666, "lon": -13.825490090245248, "alt_km": 19145.237521502368, "timestamp": "2025-12-21T18:54:58.757797+00:00", "meta": {"OBJECT_NAME": "COSMOS 2534 (758)", "OBJECT_ID": "2019-030A", "EPOCH": "2025-12-21T10:55:51.060576", "MEAN_MOTION": 2.13102432, "ECCENTRICITY": 0.00087289, "INCLINATION": 64.366, "RA_OF_ASC_NODE": 198.5992, "ARG_OF_PERICENTER": 284.1192, "MEAN_ANOMALY": 304.9695, "EPHEMERIS_TYPE": 0, "CLASSIFICATION_TYPE": "U", "NORAD_CAT_ID": 44299, "ELEMENT_SET_NO": 999, "REV_AT_EPOCH": 5113, "BSTAR": 0, "MEAN_MOTION_DOT": 9.7e-07, "MEAN_MOTION_DDOT": 0}, "tle": {"line1": "1 44299U 19030A   25355.45545209  .00000097  00000+0  00000+0 0  9999", "line2": "2 44299  64.3660 198.5992 0008728 284.1192 304.9695  2.13102432 51134"}}, "geometry": {"type": "Point", "coordinates": [-13.825490090245248, 48.134541777748666]}}, {"type": "Feature", "properties": {"norad_id": 44850, "name": "COSMOS 2544 (759)", "group": "glo-ops", "lat": 60.505711934424866, "lon": -154.04718514367167, "alt_km": 19152.2440570038, "timestamp": "2025-12-21T18:54:58.757808+00:00", "meta": {"OBJECT_NAME": "COSMOS 2544 (759)", "OBJECT_ID": "2019-088A", "EPOCH": "2025-12-21T04:18:06.689376", "MEAN_MOTION": 2.13102125, "ECCENTRICITY": 0.00141884, "INCLINATION": 65.4644, "RA_OF_ASC_NODE": 79.6762, "ARG_OF_PERICENTER": 250.1842, "MEAN_ANOMALY": 109.6995, "EPHEMERIS_TYPE": 0, "CLASSIFICATION_TYPE": "U", "NORAD_CAT_ID": 44850, "ELEMENT_SET_NO": 999, "REV_AT_EPOCH": 4692, "BSTAR": 0, "MEAN_MOTION_DOT": -1e-07, "MEAN_MOTION_DDOT": 0}, "tle": {"line1": "1 44850U 19088A   25355.17924409 -.00000010  00000+0  00000+0 0  9993", "line2": "2 44850  65.4644  79.6762 0014188 250.1842 109.6995  2.13102125 46920"}}, "geometry": {"type": "Point", "coordinates": [-154.04718514367167, 60.505711934424866]}}]}